ADRAS-J                 
1 58992U 24034A   24096.49119301  .00002999  00000+0  28865-3 0  9995
2 58992  98.2059  66.2832 0042892 288.9205  70.7367 14.93141632  7016
